[{"OBJECT_NAME":"STARLINK-32047","OBJECT_ID":"2024-183H","EPOCH":"2026-03-09T11:55:51.712320","MEAN_MOTION":15.30182907,"ECCENTRICITY":0.00011116,"INCLINATION":53.159,"RA_OF_ASC_NODE":143.2927,"ARG_OF_PERICENTER":117.2776,"MEAN_ANOMALY":242.8338,"EPHEMERIS_TYPE":0,"CLASSIFICATION_TYPE":"U","NORAD_CAT_ID":61516,"ELEMENT_SET_NO":999,"REV_AT_EPOCH":7962,"BSTAR":6.7349228e-5,"MEAN_MOTION_DOT":1.635e-5,"MEAN_MOTION_DDOT":0},{"OBJECT_NAME":"OBJECT P","OBJECT_ID":"2018-099P","EPOCH":"2026-03-09T16:35:55.790016","MEAN_MOTION":15.30834106,"ECCENTRICITY":0.00076856,"INCLINATION":97.4366,"RA_OF_ASC_NODE":131.9195,"ARG_OF_PERICENTER":276.7627,"MEAN_ANOMALY":83.2739,"EPHEMERIS_TYPE":0,"CLASSIFICATION_TYPE":"U","NORAD_CAT_ID":43771,"ELEMENT_SET_NO":999,"REV_AT_EPOCH":39830,"BSTAR":0.00063632878,"MEAN_MOTION_DOT":0.00018926,"MEAN_MOTION_DDOT":0}]
